#dP2019  3 20  0  0  0.00000000      96 __u+U ITR00 FIT  IAC
## 2045 259200.00000000   900.00000000 58562 0.0000000000000
+  108   C01C02C03C04C05C06C07C08C09C10C11C12C13C14C16C19C20
+        C21C22C24C25C26C27C28C29C30E01E02E03E04E05E07E08E09
+        E11E12E13E15E18E19E21E24E25E26E27E30E31E33E36G01G02
+        G03G04G05G06G07G08G09G10G11G12G13G14G15G16G17G18G19
+        G20G21G22G23G24G25G26G27G28G29G30G31G32J01J02J03J07
+        R01R02R03R04R05R07R08R09R10R11R13R14R15R16R17R18R19
+        R20R21R22R23R24R26  0  0  0  0  0  0  0  0  0  0  0
++         0 11 12 12 11  9  8  8  8  8  8  8  8  8  9 14 14
++         0 15  0 15 20 16 15  0  0  5  5  5  5  5  5  5  5
++         5  5  4  5  5  5  5  5  5  5  5  5  5  5  5  3  3
++         3  0  3  3  3  3  3  3  3  3  3  3  3  3  3  3  3
++         3  3  3  3  3  3  3  4  3  3  3  3  3 10 10 10 15
++         6  5  5  5  5  6  5  5  6  5  5  5  5  5  5  5  6
++         5  5  5  6  6  8  0  0  0  0  0  0  0  0  0  0  0
%c M  cc GPS ccc cccc cccc cccc cccc ccccc ccccc ccccc ccccc
%c cc cc ccc ccc cccc cccc cccc cccc ccccc ccccc ccccc ccccc
%f  0.0000000  0.000000000  0.00000000000  0.000000000000000
%f  0.0000000  0.000000000  0.00000000000  0.000000000000000
%i    0    0    0    0      0      0      0      0         0
%i    0    0    0    0      0      0      0      0         0
/* INFORMATION & ANALYSIS CENTER (IAC) OF MCC   (RAPID DATA)
/* S/V CLOCKS ARE ALIGNED TO GPS & GLONASS TIME RESPECTIVELY
/* USING THE BROADCAST EPHEMERIS                            
/* PCV:IGS14_2038 OL/AL:FES2004  NONE     YN ORB:CoN CLK:CoN
*  2019 03 20 11 15  0.00000000
PC01      0.000000      0.000000      0.000000 999999.999999
PC02   4362.441508  41950.975124   -292.309527   -388.555247
PC03 -14849.919901  39439.141919    518.338127    -24.893561
PC04 -39611.431462  14436.864391    715.887516     20.982108
PC05  21831.386541  36045.502308   -588.884031   -140.590659
PC06 -13883.058367  20713.902486 -33711.408874    557.935335
PC07 -22446.690754  33347.474799  12034.774857     87.481846
PC08  -8188.825831  34460.565854  23171.157763    132.240129
PC09   2270.360108  26304.427030 -32609.584777    620.169220
PC10 -11336.052043  33979.679521  22070.764163   -590.268607
PC11   4547.402263 -16338.143603 -22091.441303    -60.013506
PC12  21986.317102   8333.642241 -15020.953784    507.223140
PC13    847.625779  40968.036255  10515.679243   -603.979696
PC14  23243.317308 -12587.249923   8937.831926    747.064454
PC16  -9221.026347  22310.855736 -34577.242041   -399.671658
PC19  -5066.022723  16914.551585 -21578.428326 999999.999999
PC20 -22388.235980  13211.309111 -10090.799102 999999.999999
PC21      0.000000      0.000000      0.000000 999999.999999
PC22  15410.966520  10821.147933 -20593.818932 999999.999999
PC24      0.000000      0.000000      0.000000 999999.999999
PC25   4127.389869 -27257.800702  -4279.950261 999999.999999
PC26  16627.163558  -1277.869213  22365.799866    174.764053
PC27 -22079.567592  -8449.371915  14837.908422     83.030381
PC28 -18105.075958 -21150.355848  -1860.242800 999999.999999
PC29      0.000000      0.000000      0.000000 999999.999999
PC30      0.000000      0.000000      0.000000 999999.999999
PE01  -8541.955197 -14869.517233 -24131.513135   -566.046064
PE02   8563.018873  14842.540788  24131.594918     52.288194
PE03  19995.845149  14531.187671 -16291.730973   -145.946450
PE04 -29376.896259  -3511.970572   -943.392680   -244.177320
PE05  -1191.032370  17120.514000 -24114.941228     88.479713
PE07  21581.449472  -9689.022806  17804.436792   -152.695614
PE08  29414.137803   3204.964392   1043.542593   6385.877065
PE09 -21460.723083   9766.661697 -17880.444123   6494.669472
PE11 -11131.172133  14099.284952  23524.400217   5714.438493
PE12 -18771.286381  -7655.788742  21587.327112   6413.701311
PE13  11072.934409 -13985.842108 -23610.657474    384.462128
PE15  18689.330494   7206.843543 -21775.539287    916.578948
PE18  24005.239581  12897.332833  -2829.145874   -597.746138
PE19 -18290.634733 -15096.672900  17719.733978     -7.620516
PE21   8710.114578 -25131.213938 -12996.439794   -524.981204
PE24 -20664.992181  20537.738185  -5309.033762   6175.811558
PE25  -8759.477781  25138.265893  12943.796086   1859.911286
PE26  -2718.752992 -27094.785617 -11597.108298   4777.450254
PE27  20667.319837 -20397.068808   5727.095936    506.816579
PE30  20654.750298  -3944.669845  20813.165986   5018.116097
PE31 -20475.031325   3709.007920 -21050.774858    878.423395
PE33 -15401.059752 -24239.663642   7210.205419    847.946377
PE36   3032.832642  27044.507857  11643.379551    734.293493
PG01 -13342.339535  10863.779392  19967.594560   -184.501001
PG02  13767.404007  13612.333233 -17652.296828   -168.189996
PG03 -23327.169146  12401.735488   2239.709135    186.872552
PG04      0.000000      0.000000      0.000000 999999.999999
PG05  19535.757720   2718.717479 -17999.424933      1.177676
PG06   7635.653923  23232.613127 -10272.958058    250.838953
PG07  -7279.323001  22856.439500 -10625.374246     11.358824
PG08 -23873.409370  -3862.636755  11253.011553   -136.857466
PG09  -6944.147920  13753.551554 -21679.871961    442.341963
PG10    982.379138 -17155.144537  20259.223594     93.002360
PG11 -14931.742643   6027.269095  20584.381612   -641.785555
PG12  24167.510263 -10215.982804   3218.795024    258.548192
PG13  23033.047066  12250.591646   4980.716583    -71.019419
PG14 -16367.460298 -18784.850558   9770.799440    -87.659083
PG15  23750.141257    432.494205  12010.745736   -322.634331
PG16 -20368.185878  -2664.891373 -17259.720369    -26.691974
PG17   8701.718770  18732.842655  17157.001210     26.228002
PG18 -15179.248204    156.381504  21316.522183     36.526211
PG19  16080.264781  18646.337536   9537.358399   -340.213173
PG20   9543.771902 -20511.685391  13695.763671    523.262866
PG21   2506.106076 -25512.739828  -6387.712009   -228.897585
PG22 -23494.346838   7459.561617  10045.138130   -667.871621
PG23 -18093.155758   5647.123124 -18444.052627   -193.355868
PG24  14776.093154  -6738.634112  20813.997134    -63.637558
PG25  18492.492659 -17342.984657  -7663.128470   -735.452698
PG26 -12046.426531 -10308.049724 -21345.271500    154.107093
PG27 -23850.509250 -11989.648339   1174.884869    -90.091727
PG28  -3565.235908  17105.237682  20641.407607    766.565820
PG29  12438.628215  -9115.736911 -21648.190225    245.073393
PG30   -306.310273  26457.706748    276.077952    -71.707257
PG31  -7958.683143 -22336.611401 -11492.789592     50.871980
PG32 -12345.853219 -18396.406908  14780.023417   -172.183508
PJ01 -33106.697168  21591.573719 -10065.652011   -342.454200
PJ02 -24235.430205  32036.495125  -8452.161969      0.430668
PJ03 -26835.186271  22506.590976  28556.371505     -0.317087
PJ07 -25394.638430  33664.465295    -51.579854     67.372495
PR01  14050.468834   8335.980672 -19592.326862     41.098400
PR02  25353.105934   -449.222177  -2469.989391    359.660470
PR03  19418.817998  -8169.643162  14389.919539     -7.462866
PR04   1643.842449 -11058.365499  22943.739258    299.268659
PR05 -16057.962746  -7536.679094  18350.344288     24.430867
PR07 -19159.596814   8263.020610 -14664.159025 -87904.378531
PR08  -2520.418248  11046.212007 -22801.547243     18.583479
PR09 -14152.189626   6371.440069 -20213.598422     60.062828
PR10 -14274.852778  19252.258979  -8647.069738     45.535706
PR11  -6098.029370  22779.185970   9683.125933    -60.282257
PR13  13485.798066  -5181.310746  20999.210241    -21.462768
PR14  14185.056066 -19433.392141   8491.869572     37.093720
PR15   6732.643038 -22941.489420  -8865.435541    100.748534
PR16  -5094.325629 -13121.797622 -21270.978028     10.660211
PR17   7499.270707  -7856.572436 -23064.572903    213.587627
PR18  -4785.329659 -19841.184016 -15324.558368     37.302735
PR19 -13898.890953 -21380.414720    726.990631     48.235565
PR20 -15491.988052  -9466.680281  17955.716421   -372.331919
PR21  -7021.100223   8392.254418  23048.937526    -37.608005
PR22   6389.711318  20715.215825  13343.604121    -10.347602
PR23  15761.484284  19189.240875  -5816.781893    216.487968
PR24  15257.280552   7634.937139 -18972.828527   -178.408671
PR26 -16149.634864 -11108.765854  16326.463471      2.479545
EOF
